NORAD_CAT_ID,OBJECT_NAME,OBJECT_TYPE,EPOCH,MEAN_MOTION,ECCENTRICITY,INCLINATION,RA_OF_ASC_NODE,ARG_OF_PERICENTER,MEAN_ANOMALY,BSTAR,MEAN_MOTION_DOT,MEAN_MOTION_DDOT,TLE_LINE0,TLE_LINE1,TLE_LINE2,SEMIMAJOR_AXIS,PERIOD,APOGEE,PERIGEE,DECAYED
53886.0,STARLINK-5028,PAYLOAD,2022-11-25 06:00:00,15.22476278,0.0001477,53.2169,313.5943,55.3618,242.6843,-0.054159,-0.01169933,0.0,0 STARLINK-5028,1 53886U 22119A   22329.25001157 -.01169933  00000-0 -54159-1 0  9993,2 53886  53.2169 313.5943 0001477  55.3618 242.6843 15.22476278 10030,6876.511,94.583,499.392,497.36,0.0
53886.0,STARLINK-5028,PAYLOAD,2022-11-25 14:00:01,15.21669875,0.0001518,53.2164,312.0666,45.714,279.7954,-0.056073,-0.01181668,0.0,0 STARLINK-5028,1 53886U 22119A   22329.58334491 -.01181668  00000-0 -56073-1 0  9995,2 53886  53.2164 312.0666 0001518  45.7140 279.7954 15.21669875  1300,6878.94,94.633,501.85,499.761,0.0
53886.0,STARLINK-5028,PAYLOAD,2022-11-25 22:00:00,15.20842495,0.0001706,53.2167,310.5403,37.1621,314.8413,-0.056355,-0.01160744,0.0,0 STARLINK-5028,1 53886U 22119A   22329.91667824 -.01160744  00000-0 -56355-1 0  9996,2 53886  53.2167 310.5403 0001706  37.1621 314.8413 15.20842495  1304,6881.435,94.684,504.474,502.126,0.0
53886.0,STARLINK-5028,PAYLOAD,2022-11-26 12:00:00,15.19435376,0.0001508,53.2161,307.8773,47.2675,258.7263,-0.059928,-0.01182537,0.0,0 STARLINK-5028,1 53886U 22119A   22330.50001157 -.01182537  00000-0 -59928-1 0  9997,2 53886  53.2161 307.8773 0001508  47.2675 258.7263 15.19435376 10222,6885.683000000001,94.772,508.586,506.51,0.0
53886.0,STARLINK-5028,PAYLOAD,2022-11-26 14:00:01,15.19216377,0.0001564,53.2166,307.4963,43.0136,359.0316,-0.059282,-0.01163911,0.0,0 STARLINK-5028,1 53886U 22119A   22330.58334491 -.01163911  00000-0 -59282-1 0  9993,2 53886  53.2166 307.4963 0001564  43.0136 359.0316 15.19216377  1303,6886.345,94.786,509.287,507.133,0.0
53886.0,STARLINK-5028,PAYLOAD,2022-11-26 22:00:00,15.18397354,0.0001856,53.2167,305.9759,36.335,29.2667,-0.060207,-0.01155034,0.0,0 STARLINK-5028,1 53886U 22119A   22330.91667824 -.01155034  00000-0 -60207-1 0  9995,2 53886  53.2167 305.9759 0001856  36.3350  29.2667 15.18397354  1306,6888.821,94.837,511.964,509.407,0.0
53886.0,STARLINK-5028,PAYLOAD,2022-11-27 14:00:01,15.16773634,0.000164,53.2167,302.9433,46.7117,63.0634,-0.063467,-0.01161194,0.0,0 STARLINK-5028,1 53886U 22119A   22331.58334491 -.01161194  00000-0 -63467-1 0  9995,2 53886  53.2167 302.9433 0001640  46.7117  63.0634 15.16773634 10384,6893.736,94.938,516.732,514.471,0.0
53886.0,STARLINK-5028,PAYLOAD,2022-11-27 22:00:00,15.15973973,0.0001786999999999,53.2166,301.4286,45.2181,85.1699,-0.065982,-0.01178373,0.0,0 STARLINK-5028,1 53886U 22119A   22331.91667824 -.01178373  00000-0 -65982-1 0  9992,2 53886  53.2166 301.4286 0001787  45.2181  85.1699 15.15973973  1305,6896.16,94.988,519.258,516.793,0.0
53886.0,STARLINK-5028,PAYLOAD,2022-11-28 14:00:01,15.14330837,0.0001647,53.2167,298.4073,51.61600000000001,117.0884,-0.0679029999999999,-0.011588,0.0,0 STARLINK-5028,1 53886U 22119A   22332.58334491 -.01158800  00000-0 -67903-1 0  9995,2 53886  53.2167 298.4073 0001647  51.6160 117.0884 15.14330837 10539,6901.148,95.092,524.149,521.876,0.0
53886.0,STARLINK-5028,PAYLOAD,2022-11-28 22:00:01,15.13521794,0.0001754,53.2165,296.8986,50.2814,136.1701,-0.069779,-0.01163469,0.0,0 STARLINK-5028,1 53886U 22119A   22332.91668981 -.01163469  00000-0 -69779-1 0  9996,2 53886  53.2165 296.8986 0001754  50.2814 136.1701 15.13521794  1300,6903.607,95.142,526.683,524.261,0.0
53886.0,STARLINK-5028,PAYLOAD,2022-11-29 14:00:01,15.11953074,0.000171,53.2164,293.8888,49.261,169.6016,-0.078426,-0.01243811,0.0,0 STARLINK-5028,1 53886U 22119A   22333.58335648 -.01243811  00000-0 -78426-1 0  9990,2 53886  53.2164 293.8888 0001710  49.2610 169.6016 15.11953074 10680,6908.380999999999,95.241,531.428,529.065,0.0
53886.0,STARLINK-5028,PAYLOAD,2022-11-29 22:00:00,15.11080398,0.0001609,53.2163,292.3856,53.5479,180.035,-0.074714,-0.01163236,0.0,0 STARLINK-5028,1 53886U 22119A   22333.91667824 -.01163236  00000-0 -74714-1 0  9999,2 53886  53.2163 292.3856 0001609  53.5479 180.0350 15.11080398 10730,6911.041,95.296,534.018,531.794,0.0
53886.0,STARLINK-5028,PAYLOAD,2022-11-30 14:00:01,15.09309063,0.0001621,53.2175,289.3861,57.1355,203.1063,-0.037697,-0.00568584,0.0,0 STARLINK-5028,1 53886U 22119A   22334.58335648 -.00568584  00000-0 -37697-1 0  9992,2 53886  53.2175 289.3861 0001621  57.1355 203.1063 15.09309063 10831,6916.446999999999,95.408,539.433,537.191,0.0
53886.0,STARLINK-5028,PAYLOAD,2022-11-30 22:00:00,15.08832746,0.0001643,53.2175,287.8888,57.4124,214.6838,0.00045197,6.911e-05,0.0,0 STARLINK-5028,1 53886U 22119A   22334.91667824  .00006911  00000-0  45197-3 0  9998,2 53886  53.2175 287.8888 0001643  57.4124 214.6838 15.08832746 10884,6917.903,95.438,540.904,538.631,0.0
53886.0,STARLINK-5028,PAYLOAD,2022-12-01 14:00:01,15.0890843,0.0001613,53.2135,284.899,50.3629,244.9416,-0.0039291,-0.00062395,0.0,0 STARLINK-5028,1 53886U 22119A   22335.58334491 -.00062395  00000-0 -39291-2 0  9990,2 53886  53.2135 284.8990 0001613  50.3629 244.9416 15.08908430  1309,6917.670999999999,95.433,540.6519999999998,538.42,0.0
53886.0,STARLINK-5028,PAYLOAD,2022-12-01 22:00:00,15.08859211,0.0001622,53.2141,283.4021,54.00899999999999,252.8876,-0.0018603,-0.00029788,0.0,0 STARLINK-5028,1 53886U 22119A   22335.91667824 -.00029788  00000-0 -18603-2 0  9999,2 53886  53.2141 283.4021 0001622  54.0090 252.8876 15.08859211  1309,6917.821999999999,95.436,540.809,538.565,0.0
53886.0,STARLINK-5028,PAYLOAD,2022-12-02 06:00:00,15.08748201,0.0001766,53.2166,281.9057,51.1914,267.3253,0.0076633,0.00123508,0.0,0 STARLINK-5028,1 53886U 22119A   22336.25001157  .00123508  00000-0  76633-2 0  9998,2 53886  53.2166 281.9057 0001766  51.1914 267.3253 15.08748201 11093,6918.161,95.443,541.248,538.804,0.0
53886.0,STARLINK-5028,PAYLOAD,2022-12-02 14:00:01,15.08856561,0.0001683,53.2143,280.4092,49.6884,280.4084,-0.0029349,-0.00046716,0.0,0 STARLINK-5028,1 53886U 22119A   22336.58334491 -.00046716  00000-0 -29349-2 0  9993,2 53886  53.2143 280.4092 0001683  49.6884 280.4084 15.08856561  1307,6917.83,95.437,540.859,538.53,0.0
53886.0,STARLINK-5028,PAYLOAD,2022-12-02 22:00:00,15.08842103,0.0001654,53.2146,278.9125,52.569,289.1161,0.00013424,1.849e-05,0.0,0 STARLINK-5028,1 53886U 22119A   22336.91667824  .00001849  00000-0  13424-3 0  9993,2 53886  53.2146 278.9125 0001654  52.5690 289.1161 15.08842103 11192,6917.874,95.437,540.883,538.595,0.0
53886.0,STARLINK-5028,PAYLOAD,2022-12-03 14:00:01,15.08828444,0.0001631999999999,53.2148,275.9195,48.166,316.7128,0.00043776,6.684e-05,0.0,0 STARLINK-5028,1 53886U 22119A   22337.58334491  .00006684  00000-0  43776-3 0  9993,2 53886  53.2148 275.9195 0001632  48.1660 316.7128 15.08828444  1306,6917.916,95.438,540.91,538.6519999999998,0.0
53886.0,STARLINK-5028,PAYLOAD,2022-12-03 22:00:00,15.08862618,0.000161,53.2151,274.4231,50.0747,326.3774,-0.0023109,-0.00036901,0.0,0 STARLINK-5028,1 53886U 22119A   22337.91667824 -.00036901  00000-0 -23109-2 0  9993,2 53886  53.2151 274.4231 0001610  50.0747 326.3774 15.08862618  1304,6917.811,95.436,540.79,538.562,0.0
53886.0,STARLINK-5028,PAYLOAD,2022-12-04 04:00:00,15.08828468,0.000176,53.215,273.3019,44.4312,250.7336,-0.00072398,-0.00011788,0.0,0 STARLINK-5028,1 53886U 22119A   22338.16667824 -.00011788  00000-0 -72398-3 0  9992,2 53886  53.2150 273.3019 0001760  44.4312 250.7336 15.08828468 11384,6917.916,95.438,540.998,538.563,0.0
53886.0,STARLINK-5028,PAYLOAD,2022-12-04 14:00:01,15.0882376,0.0001559,53.2151,271.4299,47.0095,352.6309,0.0010358,0.00016228,0.0,0 STARLINK-5028,1 53886U 22119A   22338.58334491  .00016228  00000-0  10358-2 0  9998,2 53886  53.2151 271.4299 0001559  47.0095 352.6309 15.08823760  1300,6917.93,95.439,540.874,538.717,0.0
53886.0,STARLINK-5028,PAYLOAD,2022-12-04 22:00:00,15.08856106,0.0001601,53.2153,269.9338,49.5398,1.6755,-0.00053321,-8.768e-05,0.0,0 STARLINK-5028,1 53886U 22119A   22338.91667824 -.00008768  00000-0 -53321-3 0  9994,2 53886  53.2153 269.9338 0001601  49.5398   1.6755 15.08856106 11496,6917.831,95.437,540.804,538.589,0.0
53886.0,STARLINK-5028,PAYLOAD,2022-12-05 14:00:01,15.08837752,0.0001699,53.2152,266.9405,51.934,22.566,0.00032635,4.909e-05,0.0,0 STARLINK-5028,1 53886U 22119A   22339.58335648  .00004909  00000-0  32635-3 0  9990,2 53886  53.2152 266.9405 0001699  51.9340  22.5660 15.08837752  1300,6917.887,95.438,540.928,538.577,0.0
53886.0,STARLINK-5028,PAYLOAD,2022-12-05 16:00:00,15.08833157,0.0001691,53.215,266.5662,53.4594,113.8788,0.00088266,0.00013785,0.0,0 STARLINK-5028,1 53886U 22119A   22339.66667824  .00013785  00000-0  88266-3 0  9996,2 53886  53.2150 266.5662 0001691  53.4594 113.8788 15.08833157  1309,6917.901,95.438,540.936,538.596,0.0
53886.0,STARLINK-5028,PAYLOAD,2022-12-06 02:23:24,15.08837941,0.0001719,53.2165,264.6241,40.6777,319.4343,-3.9465e-05,-9.16e-06,0.0,0 STARLINK-5028,1 53886U 22119A   22340.09959238 -.00000916  00000-0 -39465-4 0  9990,2 53886  53.2165 264.6241 0001719  40.6777 319.4343 15.08837941 11676,6917.887,95.438,540.941,538.562,0.0
53886.0,STARLINK-5028,PAYLOAD,2022-12-06 11:55:43,15.08836875,0.0001902,53.2162,262.8398,50.268,309.8479,-2.0897e-05,-6.21e-06,0.0,0 STARLINK-5028,1 53886U 22119A   22340.49703349 -.00000621  00000-0 -20897-4 0  9996,2 53886  53.2162 262.8398 0001902  50.2680 309.8479 15.08836875 12152,6917.89,95.438,541.071,538.439,0.0
53886.0,STARLINK-5028,PAYLOAD,2022-12-07 05:24:58,15.08834884,0.0001945,53.2162,259.5692,53.6322,306.485,-1.6878e-05,-5.57e-06,0.0,0 STARLINK-5028,1 53886U 22119A   22341.22567851 -.00000557  00000-0 -16878-4 0  9996,2 53886  53.2162 259.5692 0001945  53.6322 306.4850 15.08834884 11848,6917.896,95.438,541.107,538.415,0.0
